NORAD_CAT_ID,OBJECT_NAME,OBJECT_TYPE,EPOCH,MEAN_MOTION,ECCENTRICITY,INCLINATION,RA_OF_ASC_NODE,ARG_OF_PERICENTER,MEAN_ANOMALY,BSTAR,MEAN_MOTION_DOT,MEAN_MOTION_DDOT,TLE_LINE0,TLE_LINE1,TLE_LINE2,SEMIMAJOR_AXIS,PERIOD,APOGEE,PERIGEE,DECAYED
53840.0,STARLINK-4766,PAYLOAD,2023-05-13 14:46:45,15.08857932,8.81e-05,53.2154,242.8494,101.6383,258.4708,0.00036294,5.496e-05,0.0,0 STARLINK-4766,1 53840U 22114Y   23133.61580018  .00005496  00000-0  36294-3 0  9992,2 53840  53.2154 242.8494 0000881 101.6383 258.4708 15.08857932 36779,6917.826,95.436,540.3,539.081,0.0
53840.0,STARLINK-4766,PAYLOAD,2023-05-14 13:02:09,15.08842319,0.0001016,53.2158,238.6868,100.1655,259.9452,0.00027398,4.076e-05,0.0,0 STARLINK-4766,1 53840U 22114Y   23134.54316475  .00004076  00000-0  27398-3 0  9997,2 53840  53.2158 238.6868 0001016 100.1655 259.9452 15.08842319 36919,6917.873,95.437,540.441,539.035,0.0
53840.0,STARLINK-4766,PAYLOAD,2023-05-14 19:23:41,15.08850625,9.88e-05,53.2158,237.492,99.0559,261.0545,0.00032307,4.859e-05,0.0,0 STARLINK-4766,1 53840U 22114Y   23134.80811880  .00004859  00000-0  32307-3 0  9991,2 53840  53.2158 237.4920 0000988  99.0559 261.0545 15.08850625 37491,6917.848,95.437,540.396,539.029,0.0
53840.0,STARLINK-4766,PAYLOAD,2023-05-15 00:09:51,15.08832272,3.35e-05,53.2152,236.6072,20.0806,340.0199,-0.00015356,-2.73e-05,0.0,0 STARLINK-4766,1 53840U 22114Y   23135.00684338 -.00002730  00000-0 -15356-3 0  9993,2 53840  53.2152 236.6072 0000335  20.0806 340.0199 15.08832272 36983,6917.904,95.438,540.001,539.537,0.0
53840.0,STARLINK-4766,PAYLOAD,2023-05-15 12:52:55,15.08845515,6.27e-05,53.2141,234.2279,87.7585,272.3479,-0.00011082,-2.051e-05,0.0,0 STARLINK-4766,1 53840U 22114Y   23135.53675886 -.00002051  00000-0 -11082-3 0  9997,2 53840  53.2141 234.2279 0000627  87.7585 272.3479 15.08845515 37064,6917.864,95.437,540.162,539.295,0.0
53840.0,STARLINK-4766,PAYLOAD,2023-05-15 16:03:42,15.08845128,9.31e-05,53.2156,233.6287,94.668,265.4418,-1.8728e-05,-5.86e-06,0.0,0 STARLINK-4766,1 53840U 22114Y   23135.66923773 -.00000586  00000-0 -18728-4 0  9998,2 53840  53.2156 233.6287 0000931  94.6680 265.4418 15.08845128 37621,6917.865,95.437,540.374,539.086,0.0
53840.0,STARLINK-4766,PAYLOAD,2023-05-16 12:43:42,15.08848115,9.73e-05,53.2149,229.7647,90.7349,269.3755,9.1952e-05,1.176e-05,0.0,0 STARLINK-4766,1 53840U 22114Y   23136.53035748  .00001176  00000-0  91952-4 0  9995,2 53840  53.2149 229.7647 0000973  90.7349 269.3755 15.08848115 37754,6917.856,95.437,540.394,539.047,0.0
53840.0,STARLINK-4766,PAYLOAD,2023-05-17 10:59:07,15.08834692,0.000113,53.2161,225.6034,86.3436,273.7685,0.00029829,4.462e-05,0.0,0 STARLINK-4766,1 53840U 22114Y   23137.45772556  .00004462  00000-0  29829-3 0  9996,2 53840  53.2161 225.6034 0001130  86.3436 273.7685 15.08834692 37359,6917.897,95.438,540.543,538.98,0.0
53840.0,STARLINK-4766,PAYLOAD,2023-05-17 12:34:30,15.08841471,0.0001145,53.216,225.3065,82.0398,278.0724,8.357e-05,1.042e-05,0.0,0 STARLINK-4766,1 53840U 22114Y   23137.52396133  .00001042  00000-0  83570-4 0  9992,2 53840  53.2160 225.3065 0001145  82.0398 278.0724 15.08841471 37901,6917.876,95.437,540.533,538.949,0.0
53840.0,STARLINK-4766,PAYLOAD,2023-05-18 12:25:17,15.08840072,0.0001086,53.2167,220.8474,85.4438,274.6678,6.2231e-05,7.03e-06,0.0,0 STARLINK-4766,1 53840U 22114Y   23138.51756195  .00000703  00000-0  62231-4 0  9994,2 53840  53.2167 220.8474 0001086  85.4438 274.6678 15.08840072 37511,6917.88,95.438,540.496,538.994,0.0
53840.0,STARLINK-4766,PAYLOAD,2023-05-18 21:57:35,15.08842245,0.0001087,53.2165,219.062,76.598,283.5133,7.6054e-05,9.23e-06,0.0,0 STARLINK-4766,1 53840U 22114Y   23138.91499954  .00000923  00000-0  76054-4 0  9997,2 53840  53.2165 219.0620 0001087  76.5980 283.5133 15.08842245 38112,6917.874,95.437,540.49,538.987,0.0
53840.0,STARLINK-4766,PAYLOAD,2023-05-19 21:48:23,15.08839874,0.0001018,53.2162,214.599,82.2075,277.9032,9.2178e-05,1.18e-05,0.0,0 STARLINK-4766,1 53840U 22114Y   23139.90860103  .00001180  00000-0  92178-4 0  9996,2 53840  53.2162 214.5990 0001018  82.2075 277.9032 15.08839874 38267,6917.881,95.438,540.45,539.042,0.0
53840.0,STARLINK-4766,PAYLOAD,2023-05-20 15:17:36,15.08851478,0.0001202,53.2169,211.3293,100.6056,259.5072,0.00015799,2.228e-05,0.0,0 STARLINK-4766,1 53840U 22114Y   23140.63723345  .00002228  00000-0  15799-3 0  9991,2 53840  53.2169 211.3293 0001202 100.6056 259.5072 15.08851478 37830,6917.845,95.437,540.542,538.879,0.0
53840.0,STARLINK-4766,PAYLOAD,2023-05-20 21:39:09,15.08845838,0.0001336,53.2164,210.1413,83.1641,276.9504,5.1834e-05,5.37e-06,0.0,0 STARLINK-4766,1 53840U 22114Y   23140.90219684  .00000537  00000-0  51834-4 0  9999,2 53840  53.2164 210.1413 0001336  83.1641 276.9504 15.08845838 38410,6917.863,95.437,540.652,538.803,0.0
53840.0,STARLINK-4766,PAYLOAD,2023-05-21 13:33:01,15.08845357,0.0001288,53.2159,207.1641,82.7426,277.3712,6.7689e-05,7.9e-06,0.0,0 STARLINK-4766,1 53840U 22114Y   23141.56459524  .00000790  00000-0  67689-4 0  9997,2 53840  53.2159 207.1641 0001288  82.7426 277.3712 15.08845357 38518,6917.864,95.437,540.62,538.838,0.0
53840.0,STARLINK-4766,PAYLOAD,2023-05-21 21:29:57,15.08833191,0.000133,53.2167,205.6822,82.6399,277.4745,1.007e-05,-1.28e-06,0.0,0 STARLINK-4766,1 53840U 22114Y   23141.89580776 -.00000128  00000-0  10070-4 0  9995,2 53840  53.2167 205.6822 0001330  82.6399 277.4745 15.08833191 38562,6917.901,95.438,540.686,538.846,0.0
53840.0,STARLINK-4766,PAYLOAD,2023-05-22 03:51:30,15.08833888,0.0001368,53.2156,204.493,79.518,280.5967,-5.2019e-05,-1.116e-05,0.0,0 STARLINK-4766,1 53840U 22114Y   23142.16076413 -.00001116  00000-0 -52019-4 0  9992,2 53840  53.2156 204.4930 0001368  79.5180 280.5967 15.08833888 38060,6917.899,95.438,540.71,538.818,0.0
53840.0,STARLINK-4766,PAYLOAD,2023-05-22 10:13:02,15.08833856,0.0001462,53.2158,203.3032,77.5464,282.5692,-4.669e-05,-1.031e-05,0.0,0 STARLINK-4766,1 53840U 22114Y   23142.42572532 -.00001031  00000-0 -46690-4 0  9998,2 53840  53.2158 203.3032 0001462  77.5464 282.5692 15.08833856 38647,6917.899,95.438,540.776,538.753,0.0
53840.0,STARLINK-4766,PAYLOAD,2023-05-22 11:48:25,15.08831252,0.0001243,53.2153,203.0047,78.8519,281.2613,-0.00011635,-2.139e-05,0.0,0 STARLINK-4766,1 53840U 22114Y   23142.49196706 -.00002139  00000-0 -11635-3 0  9990,2 53840  53.2153 203.0047 0001243  78.8519 281.2613 15.08831252 38655,6917.907,95.438,540.632,538.912,0.0
53840.0,STARLINK-4766,PAYLOAD,2023-05-23 10:03:49,15.0884052,0.0001091,53.2157,198.8409,79.1797,280.9318,4.5175e-05,4.31e-06,0.0,0 STARLINK-4766,1 53840U 22114Y   23143.41932730  .00000431  00000-0  45175-4 0  9996,2 53840  53.2157 198.8409 0001091  79.1797 280.9318 15.08840520 38257,6917.879,95.438,540.499,538.989,0.0
53840.0,STARLINK-4766,PAYLOAD,2023-05-23 21:11:31,15.08843497,0.0001054,53.2153,196.7595,75.8704,284.2406,7.0201e-05,8.3e-06,0.0,0 STARLINK-4766,1 53840U 22114Y   23143.88300495  .00000830  00000-0  70201-4 0  9995,2 53840  53.2153 196.7595 0001054  75.8704 284.2406 15.08843497 38864,6917.87,95.437,540.464,539.006,0.0
53840.0,STARLINK-4766,PAYLOAD,2023-05-24 08:19:14,15.08840687,0.0001091,53.2142,194.6779,70.8905,289.2205,0.00028227,4.207e-05,0.0,0 STARLINK-4766,1 53840U 22114Y   23144.34669062  .00004207  00000-0  28227-3 0  9997,2 53840  53.2142 194.6779 0001091  70.8905 289.2205 15.08840687 38930,6917.878,95.438,540.498,538.989,0.0
53840.0,STARLINK-4766,PAYLOAD,2023-05-26 00:03:52,15.08840805,0.0001068,53.2152,187.2429,74.9616,285.1494,3.825e-05,3.21e-06,0.0,0 STARLINK-4766,1 53840U 22114Y   23146.00268967  .00000321  00000-0  38250-4 0  9992,2 53840  53.2152 187.2429 0001068  74.9616 285.1494 15.08840805 38644,6917.878,95.438,540.482,539.004,0.0
53840.0,STARLINK-4766,PAYLOAD,2023-05-26 09:36:11,15.08841975,0.0001081,53.2157,185.4603,90.921,269.1906,3.6967e-05,3.01e-06,0.0,0 STARLINK-4766,1 53840U 22114Y   23146.40012738  .00000301  00000-0  36967-4 0  9990,2 53840  53.2157 185.4603 0001081  90.9210 269.1906 15.08841975 39242,6917.874,95.437,540.487,538.992,0.0
53840.0,STARLINK-4766,PAYLOAD,2023-05-27 03:05:25,15.08836252,0.000108,53.2156,182.19,86.764,273.3475,4.3814e-05,4.1e-06,0.0,0 STARLINK-4766,1 53840U 22114Y   23147.12877081  .00000410  00000-0  43814-4 0  9990,2 53840  53.2156 182.1900 0001080  86.7640 273.3475 15.08836252 38816,6917.892,95.438,540.504,539.01,0.0
53840.0,STARLINK-4766,PAYLOAD,2023-05-27 18:59:17,15.08835506,0.0001063,53.2156,179.2168,90.3271,269.7843,3.1446e-05,2.13e-06,0.0,0 STARLINK-4766,1 53840U 22114Y   23147.79117287  .00000213  00000-0  31446-4 0  9997,2 53840  53.2156 179.2168 0001063  90.3271 269.7843 15.08835506 39451,6917.894,95.438,540.494,539.024,0.0
53840.0,STARLINK-4766,PAYLOAD,2023-05-28 06:06:59,15.08837836,0.0001023,53.2149,177.1328,81.2525,278.8583,4.4988e-05,4.28e-06,0.0,0 STARLINK-4766,1 53840U 22114Y   23148.25485199  .00000428  00000-0  44988-4 0  9992,2 53840  53.2149 177.1328 0001023  81.2525 278.8583 15.08837836 39523,6917.887,95.438,540.46,539.044,0.0
53840.0,STARLINK-4766,PAYLOAD,2023-05-28 10:53:08,15.0883847,0.0001026,53.215,176.2408,81.4533,278.6575,4.6516e-05,4.53e-06,0.0,0 STARLINK-4766,1 53840U 22114Y   23148.45357172  .00000453  00000-0  46516-4 0  9990,2 53840  53.2150 176.2408 0001026  81.4533 278.6575 15.08838470 39016,6917.885,95.438,540.46,539.04,0.0
53840.0,STARLINK-4766,PAYLOAD,2023-05-28 18:50:04,15.08836951,0.0001007,53.2151,174.754,80.9784,279.1322,5.1718e-05,5.35e-06,0.0,0 STARLINK-4766,1 53840U 22114Y   23148.78477308  .00000535  00000-0  51718-4 0  9991,2 53840  53.2151 174.7540 0001007  80.9784 279.1322 15.08836951 39601,6917.89,95.438,540.451,539.058,0.0
53840.0,STARLINK-4766,PAYLOAD,2023-05-29 09:08:32,15.08837157,0.000104,53.2151,172.0769,79.3764,280.7345,5.2941e-05,5.55e-06,0.0,0 STARLINK-4766,1 53840U 22114Y   23149.38093422  .00000555  00000-0  52941-4 0  9990,2 53840  53.2151 172.0769 0001040  79.3764 280.7345 15.08837157 39693,6917.889,95.438,540.474,539.035,0.0
